TRANSPORTER-12 OBJECT AZ
1 62656U 25009AZ  26068.71026235  .00016057  00000+0  54903-3 0  9991
2 62656  97.3981 151.9913 0000987  45.3581 314.7740 15.30349724 63792
STARLINK-34194          
1 64179U 25113K   26068.44742680  .00032903  00000+0  11182-2 0  9997
2 64179  53.1604  91.8602 0001558  73.4243 286.6929 15.30197387 45034
